      2.10          N: GNSS NAV DATA                        RINEX VERSION / TYPE
fic2rin                                 10/03/2022 00:17:29 PGM / RUN BY / DATE
                                                            END OF HEADER
15 22 10  3  0  0  0.0 -.241086818278D-04  .318323145621D-11  .000000000000D+00
     .620000000000D+02 -.296562500000D+02  .512699927438D-08 -.213645058516D+01
    -.172667205334D-05  .146211028332D-01  .821985304356D-05  .515362074661D+04
     .864000000000D+05  .163912773132D-06  .218991451802D+01 -.912696123123D-07
     .930950628619D+00  .196437500000D+03  .114146193769D+01 -.802319134098D-08
     .482877256633D-09  .100000000000D+01  .223000000000D+04  .000000000000D+00
     .240000000000D+01  .000000000000D+00 -.107102096081D-07  .620000000000D+02
     .798300000000D+05  .400000000000D+01
16 22 10  3  0  0  0.0 -.525541137904D-03 -.795807864051D-12  .000000000000D+00
     .550000000000D+02  .749687500000D+02  .442875590403D-08 -.242421192124D+00
     .397488474846D-05  .128149722004D-01  .828318297863D-05  .515372189713D+04
     .864000000000D+05 -.130385160446D-07 -.177735883230D+01  .119209289551D-06
     .967381490293D+00  .222437500000D+03  .732320070790D+00 -.809319425688D-08
    -.417874549009D-09  .100000000000D+01  .223000000000D+04  .000000000000D+00
     .240000000000D+01  .000000000000D+00 -.102445483208D-07  .550000000000D+02
     .804000000000D+05  .400000000000D+01
18 22 10  3  0 29 36.0  .281794928014D-04 -.130739863380D-10  .000000000000D+00
     .530000000000D+02 -.383437500000D+02  .424053377811D-08 -.288233517178D+01
    -.199861824512D-05  .288771511987D-02  .388547778130D-05  .515372218132D+04
     .881760000000D+05 -.391155481339D-07  .246889090230D+00 -.428408384323D-07
     .972742360910D+00  .310281250000D+03  .308359355619D+01 -.808783689087D-08
    -.328585115460D-10  .100000000000D+01  .223000000000D+04  .000000000000D+00
     .240000000000D+01  .000000000000D+00 -.838190317154D-08  .565000000000D+03
     .810000000000D+05  .400000000000D+01
13 22 10  2 23 59 44.0  .398811418563D-03  .716227077646D-11  .000000000000D+00
     .500000000000D+01 -.195625000000D+02  .442732727309D-08 -.163993574433D+01
    -.103749334812D-05  .651673891116D-02  .847689807415D-05  .515367183304D+04
     .863840000000D+05  .119209289551D-06  .245854002397D+01 -.353902578354D-07
     .969192306384D+00  .216843750000D+03  .941551652777D+00 -.779425323336D-08
     .378587198248D-09  .100000000000D+01  .223000000000D+04  .000000000000D+00
     .240000000000D+01  .000000000000D+00 -.111758708954D-07  .500000000000D+01
     .818100000000D+05  .400000000000D+01
32 22 10  2 23 59 44.0 -.251347664744D-03 -.117097442853D-10  .000000000000D+00
     .500000000000D+01 -.299687500000D+02  .471341061819D-08 -.439004732572D+00
    -.143237411976D-05  .612027349416D-02  .889785587788D-05  .515364933968D+04
     .863840000000D+05 -.204890966415D-07  .231420417701D+01  .128522515297D-06
     .958714530148D+00  .209562500000D+03 -.229622850089D+01 -.804640659370D-08
     .410374236591D-09  .100000000000D+01  .223000000000D+04  .000000000000D+00
     .240000000000D+01  .000000000000D+00  .465661287308D-09  .500000000000D+01
     .819000000000D+05  .400000000000D+01
